[{"OBJECT_NAME":"STARLINK-35374","OBJECT_ID":"2025-243T","EPOCH":"2026-03-09T17:54:16.967808","MEAN_MOTION":15.30198998,"ECCENTRICITY":0.00011126,"INCLINATION":53.1594,"RA_OF_ASC_NODE":244.9003,"ARG_OF_PERICENTER":109.014,"MEAN_ANOMALY":251.0982,"EPHEMERIS_TYPE":0,"CLASSIFICATION_TYPE":"U","NORAD_CAT_ID":66194,"ELEMENT_SET_NO":999,"REV_AT_EPOCH":2066,"BSTAR":0.00042994464,"MEAN_MOTION_DOT":0.00012395,"MEAN_MOTION_DDOT":0},{"OBJECT_NAME":"CZ-4B R\/B","OBJECT_ID":"2010-051C","EPOCH":"2026-03-09T16:48:37.977120","MEAN_MOTION":15.17426017,"ECCENTRICITY":0.00758037,"INCLINATION":97.7974,"RA_OF_ASC_NODE":110.8647,"ARG_OF_PERICENTER":95.044,"MEAN_ANOMALY":265.9451,"EPHEMERIS_TYPE":0,"CLASSIFICATION_TYPE":"U","NORAD_CAT_ID":37181,"ELEMENT_SET_NO":999,"REV_AT_EPOCH":84355,"BSTAR":0.00029718512,"MEAN_MOTION_DOT":6.328e-5,"MEAN_MOTION_DDOT":0}]
